{"type": "FeatureCollection", "features": [ {"type": "Feature", "properties": {"norad_id": 30675, "name": "FENGYUN 1C DEB", "group": "fengyun-1c-debris", "lat": 70.64817352194372, "lon": -91.37446242039483, "alt_km": 780.8127328079036, "timestamp": "2025-12-09T11:33:55.077825+00:00", "meta": {"OBJECT_NAME": "FENGYUN 1C DEB", "OBJECT_ID": "1999-025AQH", "EPOCH": "2025-12-09T04:28:15.589920", "MEAN_MOTION": 14.27355823, "ECCENTRICITY": 0.0054099, "INCLINATION": 98.7539, "RA_OF_ASC_NODE": 62.3074, "ARG_OF_PERICENTER": 179.0504, "MEAN_ANOMALY": 210.7719, "EPHEMERIS_TYPE": 0, "CLASSIFICATION_TYPE": "U", "NORAD_CAT_ID": 30675, "ELEMENT_SET_NO": 999, "REV_AT_EPOCH": 96841, "BSTAR": 0.0020238, "MEAN_MOTION_DOT": 4.994e-05, "MEAN_MOTION_DDOT": 0}, "tle": {"line1": "1 30675U 99025AQH 25343.18629155  .00004994  00000+0  20238-2 0  9992", "line2": "2 30675  98.7539  62.3074 0054099 179.0504 210.7719 14.27355823968414"}}, "geometry": {"type": "Point", "coordinates": [-91.37446242039483, 70.64817352194372]}}, {"type": "Feature", "properties": {"norad_id": 30676, "name": "FENGYUN 1C DEB", "group": "fengyun-1c-debris", "lat": -36.26776120365949, "lon": 175.93158422046073, "alt_km": 998.286330671679, "timestamp": "2025-12-09T11:33:55.077835+00:00", "meta": {"OBJECT_NAME": "FENGYUN 1C DEB", "OBJECT_ID": "1999-025AQJ", "EPOCH": "2025-12-08T18:15:40.769856", "MEAN_MOTION": 13.7389577, "ECCENTRICITY": 0.0472379, "INCLINATION": 98.2657, "RA_OF_ASC_NODE": 169.1827, "ARG_OF_PERICENTER": 59.1069, "MEAN_ANOMALY": 305.5652, "EPHEMERIS_TYPE": 0, "CLASSIFICATION_TYPE": "U", "NORAD_CAT_ID": 30676, "ELEMENT_SET_NO": 999, "REV_AT_EPOCH": 93869, "BSTAR": 0.0012183398, "MEAN_MOTION_DOT": 2.539e-05, "MEAN_MOTION_DDOT": 0}, "tle": {"line1": "1 30676U 99025AQJ 25342.76088854  .00002539  00000+0  12183-2 0  9994", "line2": "2 30676  98.2657 169.1827 0472379  59.1069 305.5652 13.73895770938698"}}, "geometry": {"type": "Point", "coordinates": [175.93158422046073, -36.26776120365949]}}, {"type": "Feature", "properties": {"norad_id": 30677, "name": "FENGYUN 1C DEB", "group": "fengyun-1c-debris", "lat": -12.773750339274002, "lon": 30.595178655374262, "alt_km": 801.436497493085, "timestamp": "2025-12-09T11:33:55.077845+00:00", "meta": {"OBJECT_NAME": "FENGYUN 1C DEB", "OBJECT_ID": "1999-025AQK", "EPOCH": "2025-12-09T01:55:20.074080", "MEAN_MOTION": 14.38104249, "ECCENTRICITY": 0.0066017, "INCLINATION": 98.2539, "RA_OF_ASC_NODE": 28.3232, "ARG_OF_PERICENTER": 215.044, "MEAN_ANOMALY": 212.6594, "EPHEMERIS_TYPE": 0, "CLASSIFICATION_TYPE": "U", "NORAD_CAT_ID": 30677, "ELEMENT_SET_NO": 999, "REV_AT_EPOCH": 97927, "BSTAR": 0.001487, "MEAN_MOTION_DOT": 4.582e-05, "MEAN_MOTION_DDOT": 0}, "tle": {"line1": "1 30677U 99025AQK 25343.08009345  .00004582  00000+0  14870-2 0  9994", "line2": "2 30677  98.2539  28.3232 0066017 215.0440 212.6594 14.38104249979276"}}, "geometry": {"type": "Point", "coordinates": [30.595178655374262, -12.773750339274002]}}, {"type": "Feature", "properties": {"norad_id": 30678, "name": "FENGYUN 1C DEB", "group": "fengyun-1c-debris", "lat": -0.9846230799993853, "lon": -55.70651423324672, "alt_km": 839.1341133178275, "timestamp": "2025-12-09T11:33:55.077854+00:00", "meta": {"OBJECT_NAME": "FENGYUN 1C DEB", "OBJECT_ID": "1999-025AQL", "EPOCH": "2025-12-08T20:39:18.903744", "MEAN_MOTION": 14.24080885, "ECCENTRICITY": 0.00720041, "INCLINATION": 99.0805, "RA_OF_ASC_NODE": 303.4945, "ARG_OF_PERICENTER": 242.216, "MEAN_ANOMALY": 172.9774, "EPHEMERIS_TYPE": 0, "CLASSIFICATION_TYPE": "U", "NORAD_CAT_ID": 30678, "ELEMENT_SET_NO": 999, "REV_AT_EPOCH": 95820, "BSTAR": 0.0048606229, "MEAN_MOTION_DOT": 0.00011451, "MEAN_MOTION_DDOT": 0}, "tle": {"line1": "1 30678U 99025AQL 25342.86063546  .00011451  00000+0  48606-2 0  9990", "line2": "2 30678  99.0805 303.4945 0072004 242.2160 172.9774 14.24080885958206"}}, "geometry": {"type": "Point", "coordinates": [-55.70651423324672, -0.9846230799993853]}}, {"type": "Feature", "properties": {"norad_id": 30679, "name": "FENGYUN 1C DEB", "group": "fengyun-1c-debris", "lat": -76.1579711570105, "lon": 77.40066226980608, "alt_km": 1095.1862070419502, "timestamp": "2025-12-09T11:33:55.077864+00:00", "meta": {"OBJECT_NAME": "FENGYUN 1C DEB", "OBJECT_ID": "1999-025AQM", "EPOCH": "2025-12-09T01:48:54.564192", "MEAN_MOTION": 13.79706818, "ECCENTRICITY": 0.0171895, "INCLINATION": 99.3818, "RA_OF_ASC_NODE": 34.8573, "ARG_OF_PERICENTER": 88.4675, "MEAN_ANOMALY": 335.4377, "EPHEMERIS_TYPE": 0, "CLASSIFICATION_TYPE": "U", "NORAD_CAT_ID": 30679, "ELEMENT_SET_NO": 999, "REV_AT_EPOCH": 94469, "BSTAR": 0.00085177, "MEAN_MOTION_DOT": 9.4e-06, "MEAN_MOTION_DDOT": 0}, "tle": {"line1": "1 30679U 99025AQM 25343.07563153  .00000940  00000+0  85177-3 0  9990", "line2": "2 30679  99.3818  34.8573 0171895  88.4675 335.4377 13.79706818944698"}}, "geometry": {"type": "Point", "coordinates": [77.40066226980608, -76.1579711570105]}}, {"type": "Feature", "properties": {"norad_id": 30680, "name": "FENGYUN 1C DEB", "group": "fengyun-1c-debris", "lat": 55.37718319145038, "lon": 11.932865444542953, "alt_km": 1161.2116311135442, "timestamp": "2025-12-09T11:33:55.077875+00:00", "meta": {"OBJECT_NAME": "FENGYUN 1C DEB", "OBJECT_ID": "1999-025AQN", "EPOCH": "2025-12-08T15:47:34.122912", "MEAN_MOTION": 13.56054323, "ECCENTRICITY": 0.03410223, "INCLINATION": 99.6283, "RA_OF_ASC_NODE": 25.359, "ARG_OF_PERICENTER": 177.8236, "MEAN_ANOMALY": 182.4482, "EPHEMERIS_TYPE": 0, "CLASSIFICATION_TYPE": "U", "NORAD_CAT_ID": 30680, "ELEMENT_SET_NO": 999, "REV_AT_EPOCH": 92198, "BSTAR": 0.005805405, "MEAN_MOTION_DOT": 5.875e-05, "MEAN_MOTION_DDOT": 0}, "tle": {"line1": "1 30680U 99025AQN 25342.65803383  .00005875  00000+0  58054-2 0  9992", "line2": "2 30680  99.6283  25.3590 0341022 177.8236 182.4482 13.56054323921986"}}, "geometry": {"type": "Point", "coordinates": [11.932865444542953, 55.37718319145038]}}, {"type": "Feature", "properties": {"norad_id": 30683, "name": "FENGYUN 1C DEB", "group": "fengyun-1c-debris", "lat": -30.191104732712322, "lon": 169.32442633748704, "alt_km": 805.5619622521763, "timestamp": "2025-12-09T11:33:55.077885+00:00", "meta": {"OBJECT_NAME": "FENGYUN 1C DEB", "OBJECT_ID": "1999-025AQR", "EPOCH": "2025-12-08T13:03:42.348096", "MEAN_MOTION": 14.00362978, "ECCENTRICITY": 0.0138318, "INCLINATION": 99.4293, "RA_OF_ASC_NODE": 353.9059, "ARG_OF_PERICENTER": 236.0635, "MEAN_ANOMALY": 290.672, "EPHEMERIS_TYPE": 0, "CLASSIFICATION_TYPE": "U", "NORAD_CAT_ID": 30683, "ELEMENT_SET_NO": 999, "REV_AT_EPOCH": 95492, "BSTAR": 0.002054, "MEAN_MOTION_DOT": 3.257e-05, "MEAN_MOTION_DDOT": 0}, "tle": {"line1": "1 30683U 99025AQR 25342.54424014  .00003257  00000+0  20540-2 0  9994", "line2": "2 30683  99.4293 353.9059 0138318 236.0635 290.6720 14.00362978954926"}}, "geometry": {"type": "Point", "coordinates": [169.32442633748704, -30.191104732712322]}}, {"type": "Feature", "properties": {"norad_id": 30684, "name": "FENGYUN 1C DEB", "group": "fengyun-1c-debris", "lat": 58.82976026829947, "lon": 8.792861193188442, "alt_km": 1141.4722713813317, "timestamp": "2025-12-09T11:33:55.077895+00:00", "meta": {"OBJECT_NAME": "FENGYUN 1C DEB", "OBJECT_ID": "1999-025AQS", "EPOCH": "2025-12-08T01:53:12.958944", "MEAN_MOTION": 13.66790621, "ECCENTRICITY": 0.02344994, "INCLINATION": 99.5311, "RA_OF_ASC_NODE": 23.5348, "ARG_OF_PERICENTER": 281.2469, "MEAN_ANOMALY": 76.2405, "EPHEMERIS_TYPE": 0, "CLASSIFICATION_TYPE": "U", "NORAD_CAT_ID": 30684, "ELEMENT_SET_NO": 999, "REV_AT_EPOCH": 93565, "BSTAR": 0.0012999889, "MEAN_MOTION_DOT": 1.263e-05, "MEAN_MOTION_DDOT": 0}, "tle": {"line1": "1 30684U 99025AQS 25342.07862221  .00001263  00000+0  13000-2 0  9997", "line2": "2 30684  99.5311  23.5348 0234499 281.2469  76.2405 13.66790621935652"}}, "geometry": {"type": "Point", "coordinates": [8.792861193188442, 58.82976026829947]}}, {"type": "Feature", "properties": {"norad_id": 30686, "name": "FENGYUN 1C DEB", "group": "fengyun-1c-debris", "lat": -7.058078522294121, "lon": -4.119233240741782, "alt_km": 595.5022705634274, "timestamp": "2025-12-09T11:33:55.077906+00:00", "meta": {"OBJECT_NAME": "FENGYUN 1C DEB", "OBJECT_ID": "1999-025AQU", "EPOCH": "2025-12-09T00:01:24.657312", "MEAN_MOTION": 14.73814822, "ECCENTRICITY": 0.0144181, "INCLINATION": 99.0325, "RA_OF_ASC_NODE": 176.474, "ARG_OF_PERICENTER": 132.2328, "MEAN_ANOMALY": 23.3501, "EPHEMERIS_TYPE": 0, "CLASSIFICATION_TYPE": "U", "NORAD_CAT_ID": 30686, "ELEMENT_SET_NO": 999, "REV_AT_EPOCH": 99546, "BSTAR": 0.0008862, "MEAN_MOTION_DOT": 6.788e-05, "MEAN_MOTION_DDOT": 0}, "tle": {"line1": "1 30686U 99025AQU 25343.00097983  .00006788  00000+0  88620-3 0  9996", "line2": "2 30686  99.0325 176.4740 0144181 132.2328  23.3501 14.73814822995469"}}, "geometry": {"type": "Point", "coordinates": [-4.119233240741782, -7.058078522294121]}}, {"type": "Feature", "properties": {"norad_id": 30688, "name": "FENGYUN 1C DEB", "group": "fengyun-1c-debris", "lat": -79.14932146474113, "lon": -176.18324135620085, "alt_km": 785.2620416849823, "timestamp": "2025-12-09T11:33:55.077916+00:00", "meta": {"OBJECT_NAME": "FENGYUN 1C DEB", "OBJECT_ID": "1999-025AQW", "EPOCH": "2025-12-09T03:46:22.277856", "MEAN_MOTION": 14.326476, "ECCENTRICITY": 0.0015022, "INCLINATION": 98.7009, "RA_OF_ASC_NODE": 56.5188, "ARG_OF_PERICENTER": 327.1708, "MEAN_ANOMALY": 62.8455, "EPHEMERIS_TYPE": 0, "CLASSIFICATION_TYPE": "U", "NORAD_CAT_ID": 30688, "ELEMENT_SET_NO": 999, "REV_AT_EPOCH": 97209, "BSTAR": 0.0019466, "MEAN_MOTION_DOT": 5.255e-05, "MEAN_MOTION_DDOT": 0}, "tle": {"line1": "1 30688U 99025AQW 25343.15720229  .00005255  00000+0  19466-2 0  9999", "line2": "2 30688  98.7009  56.5188 0015022 327.1708  62.8455 14.32647600972091"}}, "geometry": {"type": "Point", "coordinates": [-176.18324135620085, -79.14932146474113]}}]}